#dP2023  3  5 18  0  0.00000000      96 __u+U ITR00 EXT  IAC
## 2252  64800.00000000   900.00000000 60008 0.7500000000000
+  118   C06C07C08C09C10C11C12C13C14C16C19C20C21C22C23C24C25
+        C26C27C28C29C30C32C33C34C35C36C37C38C39C40C41C42C43
+        C44C45C46E02E03E04E05E07E08E09E10E11E12E14E15E18E19
+        E21E24E25E26E27E30E31E33E34E36G01G02G03G04G05G06G07
+        G08G09G10G11G12G13G14G15G16G17G18G19G20G21G22G23G24
+        G25G26G27G28G29G30G31G32J02J03J04R01R02R03R04R05R07
+        R08R09R11R12R13R14R15R16R17R18R19R20R21R22R24R25  0
++         0  0  0  0  0  0  0  0  0  0  0  0  0  0  0  0  0
++         0  0  0  0  0  0  0  0  0  0  0  0  0  0  0  0  0
++         0  0  0  0  0  0  0  0  0  0  0  0  0  0  0  0  0
++         0  0  0  0  0  0  0  0  0  0  0  0  0  0  0  0  0
++         0  0  0  0  0  0  0  0  0  0  0  0  0  0  0  0  0
++         0  0  0  0  0  0  0  0  0  0  0  0  0  0  0  0  0
++         0  0  0  0  0  0  0  0  0  0  0  0  0  0  0  0  0
%c M  cc GPS ccc cccc cccc cccc cccc ccccc ccccc ccccc ccccc
%c cc cc ccc ccc cccc cccc cccc cccc ccccc ccccc ccccc ccccc
%f  0.0000000  0.000000000  0.00000000000  0.000000000000000
%f  0.0000000  0.000000000  0.00000000000  0.000000000000000
%i    0    0    0    0      0      0      0      0         0
%i    0    0    0    0      0      0      0      0         0
/* IAC                                ULTRA-RAPID PREDICTION
/* S/V CLOCKS ARE ALIGNED TO GNSS TIME                      
/* G:C1WC2W R:C1PC2P E:C1XC5X C:C2IC6I J:C1CC2S             
/* PCV:IGS20_2247 OL/AL:FES2004  NONE     YN ORB:CoN CLK:CoN
*  2023 03 05 19 30  0.00000000
PC06  -4689.870279  38296.917609  17332.287244   -194.371377
PC07 -10549.452349  25482.913036 -31863.780524     22.966882
PC08 -19375.231307  32780.173154  17911.122629    521.640205
PC09    203.360551  41528.316627   9204.701143    915.207579
PC10  -2451.893283  26999.224539 -31978.484611     -2.447758
PC11  17405.166770   8207.561352  20271.917049    689.325614
PC12  13715.445767  23484.361437   6291.643389    488.809474
PC13 -13220.842966  33161.499591  22391.688408    222.575361
PC14  27670.034941   3369.309040   -179.874851    553.916133
PC16  -5829.766115  37165.768189  19540.296206    146.480059
PC19 -26094.843329   3172.326720   9431.400139   -895.121698
PC20 -25613.710558  -8321.418625  -7353.458497    694.295377
PC21   9493.274382  15708.379482  21034.667258   -909.042340
PC22 -11588.384171  13374.647932  21588.869484   -601.008344
PC23  15646.464215 -23009.605739   2158.670923   -884.248271
PC24  14139.075419   8333.590676 -22589.620998   -332.083933
PC25  21053.693881 -12008.379748 -13862.377975     82.594750
PC26    533.887501  21292.837455 -18028.943236    -87.634830
PC27  -9045.884451 -26304.006092   2098.327638    106.123689
PC28   3900.279748 -21809.087637  16969.712177     77.597854
PC29 -15655.459773   3883.764282 -22777.791146     89.508416
PC30 -17918.088212 -16256.348906 -13891.262828      0.979802
PC32  -9590.010007 -15632.630478 -21016.096814   -606.580557
PC33  26098.929257  -3253.806312  -9293.288366   -871.048253
PC34  18136.231685  15202.352924  14798.921255    119.971359
PC35  -3987.422532  21290.897386 -17629.544232    669.750016
PC36 -21301.406284  10858.257071  14399.358296   -584.018635
PC37   1244.324124 -21986.474313  17160.471717   -808.134981
PC38 -24118.074141  33236.710427   9276.663505     62.996598
PC39  -8301.480172  33160.154349  24863.214277     -2.039259
PC40 -14940.705280  18948.744061 -34617.956075    -16.739810
PC41  12194.323806 -13194.243625 -21293.907314   -687.159207
PC42  24941.348853   9074.263703   8632.157151   -802.944084
PC43  16103.423767  -2956.737581  22591.355356     10.300623
PC44   9854.739393  26027.672612  -2321.705629     34.962991
PC45 -15396.876261  23113.767633  -2595.632397    -68.384195
PC46 -15106.637927  -6656.553910  22487.083564    -37.763359
PE02 -27338.925718  11269.076935  -1051.510017     24.551458
PE03 -19444.988201   4172.773979  21927.700058   -656.213629
PE04   2503.095730 -18583.163472 -22893.992533    -71.900448
PE05 -25335.769565 -13039.067757   8021.938341    -89.327157
PE07  16218.164469  22418.022928  10514.148740    -27.634448
PE08  -2579.431394  18384.455869  23056.251361    -46.269201
PE09 -16175.678776 -22364.594747 -10703.528269   -858.307958
PE10   1408.547519 -29238.517160  -4384.436692   -516.917296
PE11  -5489.454810 -25384.095229 -14186.935591   1131.282343
PE12   7566.095584 -28140.018805   5127.965954   -446.129012
PE14 -27115.796364  -9817.787519 -14766.273973    159.926337
PE15  -7688.778602  28063.285885  -5463.234059     -5.397375
PE18  19571.409111   7493.296444  10676.835384   -318.081640
PE19  20998.785604  -1623.638992 -20791.716990  -3081.638304
PE21  25030.837700   1855.031430 -15704.078478   -515.782397
PE24  -7208.940467 -15195.870924  24336.179880  -1148.722416
PE25 -24846.076640  -2100.783984  15941.146248   -600.704958
PE26  14926.886222   7718.075958  24375.339688     36.743841
PE27   8177.319018  14736.755782 -24338.526533   -527.498068
PE30 -13990.310624  18748.221624 -18141.535979  -1293.119117
PE31  13343.734778 -18818.272096  18551.880033   -517.736317
PE33  15702.792967 -13627.407229  21069.034549   -450.196335
PE34 -15647.585896  13839.620005 -20973.360623    -33.347560
PE36 -14537.478712  -8565.433137 -24312.153520    -21.754150
PG01  13445.852561 -17654.869313  14000.974327    205.814005
PG02 -10488.275858  21504.352420 -11159.740813   -616.501286
PG03  21599.712303 -12970.504776  -8340.865367   -354.584444
PG04  11798.681979  -9649.288980 -21747.788341    -13.787243
PG05 -25296.249091   4067.963900  -7399.938595   -118.327081
PG06  -6684.544076 -19740.377896 -16338.179340    578.753959
PG07   6506.644498 -25398.146106  -1489.348016    229.030732
PG08  20166.128358   1194.949594  17381.110113   -111.522729
PG09    876.569527 -17708.814519 -19834.838900   -206.417980
PG10   6590.111783  13518.627617  22082.816309    -27.333441
PG11 -13791.460411  -6637.729171 -21698.771782   -121.669106
PG12 -23341.142041  10723.878396  -6831.322053   -347.920071
PG13 -20557.939376  -9855.714655  13614.992462    485.910789
PG14  -3180.416923 -15169.252562  21569.990657    -11.724355
PG15 -20151.780034   1550.416876  16915.590315     18.931506
PG16  25168.605902    881.003689  -9439.608479   -517.045465
PG17 -10521.011797 -21713.023942  11419.140115    703.779356
PG18  -4544.621802  26008.405970   2050.464662   -166.989662
PG19 -17445.973949 -20201.220529    807.278541    286.062685
PG20 -20652.798173  -2485.547790 -16364.067666    446.846115
PG21  15264.243622  -8855.068441  20169.140136    154.251926
PG22  18922.561892  18682.320829  -1346.822792    439.463094
PG23  -6606.533719  16590.593010  19616.952221      9.065466
PG24 -14258.047573  14111.628271  16845.691846    -99.660519
PG25 -15406.680582  16122.423714 -14531.677271    425.276135
PG26  17055.040269   8198.826399 -18878.402873    241.871931
PG27  22293.074895  11504.310893   9100.999584     87.757841
PG28   6712.485009  21125.615976 -14666.598899     34.425668
PG29  -5239.076080  15178.222078 -21190.078689   -589.401002
PG30  -2308.280251 -24323.205011  10184.378723   -528.070132
PG31   8878.465741  17518.399108 -17848.535249   -210.882977
PG32  14264.354487  20803.391155   8809.165361   -414.837587
PJ02 -35994.478440  18439.432420  -7316.556396     -1.103329
PJ03 -20212.565030  27502.254204 -20135.081401      0.679514
PJ04 -27583.419532  28364.031609  20531.313867     94.176728
PR01  14556.104846  -5763.006287 -20128.645008     24.206064
PR02  -4582.429683 -12293.413792 -21813.856502    -23.185113
PR03 -20179.655862 -11607.569764 -10309.388759     73.621626
PR04 -24176.684507  -4694.082112   6652.671009    178.228267
PR05 -15076.338500   4810.923672  20013.345672    108.787265
PR07  20662.876068  11483.442118   9691.518032     51.153690
PR08  24204.125479   4516.486860  -6661.984157    -69.723024
PR09  -6820.104921  18002.635859 -16763.790749    107.505706
PR11  18206.667414  -6119.116690 -16771.829717    -13.598442
PR12  18533.541994 -17525.239746    774.141577     25.447772
PR13   8531.900679 -18286.345533  15585.881197    -32.674328
PR14  -8134.277745  -7650.564501  22938.731994     24.396769
PR15 -18748.082227   6775.965923  15927.011852     90.659489
PR16 -18529.071670  17550.028234   -380.676725     12.019350
PR17  -9947.780550 -19966.817617 -12390.614457    610.155123
PR18 -11193.466718  -4640.310700 -22420.766007     69.963555
PR19  -7658.172648  11553.291840 -21413.346136   -224.180813
PR20   1631.252647  24826.899664  -5730.699741    -88.808764
PR21  10196.348411  18813.658438  13870.636282   -378.083635
PR22  11385.298619   4094.026219  22486.045408     73.643949
PR24  -2612.024849 -24865.116443   5093.357736    151.483232
PR25   9083.796568  20529.767644  12104.224302     56.882168
EOF
